[{"OBJECT_NAME":"BEIDOU-3 M7","OBJECT_ID":"2018-029A","EPOCH":"2023-01-31T09:10:16.033728","MEAN_MOTION":1.8623249,"ECCENTRICITY":0.0001637,"INCLINATION":55.1339,"RA_OF_ASC_NODE":342.6295,"ARG_OF_PERICENTER":303.7282,"MEAN_ANOMALY":238.8556,"EPHEMERIS_TYPE":0,"CLASSIFICATION_TYPE":"U","NORAD_CAT_ID":43245,"ELEMENT_SET_NO":999,"REV_AT_EPOCH":3293,"BSTAR":0,"MEAN_MOTION_DOT":-1.17e-6,"MEAN_MOTION_DDOT":0},{"OBJECT_NAME":"BEIDOU-3 M8","OBJECT_ID":"2018-029B","EPOCH":"2023-01-30T22:40:57.524736","MEAN_MOTION":1.86232652,"ECCENTRICITY":0.0004963,"INCLINATION":55.1308,"RA_OF_ASC_NODE":342.6736,"ARG_OF_PERICENTER":348.6147,"MEAN_ANOMALY":307.6836,"EPHEMERIS_TYPE":0,"CLASSIFICATION_TYPE":"U","NORAD_CAT_ID":43246,"ELEMENT_SET_NO":999,"REV_AT_EPOCH":3291,"BSTAR":0.0001,"MEAN_MOTION_DOT":-1.17e-6,"MEAN_MOTION_DDOT":0},{"OBJECT_NAME":"IRIDIUM 144","OBJECT_ID":"2018-030A","EPOCH":"2023-02-01T12:53:31.273728","MEAN_MOTION":14.34219985,"ECCENTRICITY":0.000227,"INCLINATION":86.3936,"RA_OF_ASC_NODE":85.1836,"ARG_OF_PERICENTER":87.6516,"MEAN_ANOMALY":272.494,"EPHEMERIS_TYPE":0,"CLASSIFICATION_TYPE":"U","NORAD_CAT_ID":43249,"ELEMENT_SET_NO":999,"REV_AT_EPOCH":25360,"BSTAR":8.005e-5,"MEAN_MOTION_DOT":2.44e-6,"MEAN_MOTION_DDOT":0},{"OBJECT_NAME":"IRIDIUM 149","OBJECT_ID":"2018-030B","EPOCH":"2023-02-01T13:02:40.640352","MEAN_MOTION":14.34218366,"ECCENTRICITY":0.0002172,"INCLINATION":86.3935,"RA_OF_ASC_NODE":85.1614,"ARG_OF_PERICENTER":88.1604,"MEAN_ANOMALY":271.984,"EPHEMERIS_TYPE":0,"CLASSIFICATION_TYPE":"U","NORAD_CAT_ID":43250,"ELEMENT_SET_NO":999,"REV_AT_EPOCH":25362,"BSTAR":7.9878e-5,"MEAN_MOTION_DOT":2.43e-6,"MEAN_MOTION_DDOT":0},{"OBJECT_NAME":"IRIDIUM 157","OBJECT_ID":"2018-030C","EPOCH":"2023-02-01T13:30:04.827168","MEAN_MOTION":14.34218591,"ECCENTRICITY":0.0002259,"INCLINATION":86.3938,"RA_OF_ASC_NODE":85.1796,"ARG_OF_PERICENTER":101.0505,"MEAN_ANOMALY":259.0944,"EPHEMERIS_TYPE":0,"CLASSIFICATION_TYPE":"U","NORAD_CAT_ID":43251,"ELEMENT_SET_NO":999,"REV_AT_EPOCH":25360,"BSTAR":8.2407e-5,"MEAN_MOTION_DOT":2.51e-6,"MEAN_MOTION_DDOT":0},{"OBJECT_NAME":"IRIDIUM 140","OBJECT_ID":"2018-030D","EPOCH":"2023-02-01T12:17:00.591360","MEAN_MOTION":14.34219635,"ECCENTRICITY":0.000227,"INCLINATION":86.3936,"RA_OF_ASC_NODE":85.2154,"ARG_OF_PERICENTER":87.1096,"MEAN_ANOMALY":273.036,"EPHEMERIS_TYPE":0,"CLASSIFICATION_TYPE":"U","NORAD_CAT_ID":43252,"ELEMENT_SET_NO":999,"REV_AT_EPOCH":25365,"BSTAR":8.1764e-5,"MEAN_MOTION_DOT":2.49e-6,"MEAN_MOTION_DDOT":0},{"OBJECT_NAME":"IRIDIUM 145","OBJECT_ID":"2018-030E","EPOCH":"2023-02-01T11:58:43.547232","MEAN_MOTION":14.34219621,"ECCENTRICITY":0.0001817,"INCLINATION":86.3938,"RA_OF_ASC_NODE":85.1962,"ARG_OF_PERICENTER":83.5549,"MEAN_ANOMALY":276.5854,"EPHEMERIS_TYPE":0,"CLASSIFICATION_TYPE":"U","NORAD_CAT_ID":43253,"ELEMENT_SET_NO":999,"REV_AT_EPOCH":25358,"BSTAR":8.1025e-5,"MEAN_MOTION_DOT":2.47e-6,"MEAN_MOTION_DDOT":0},{"OBJECT_NAME":"IRIDIUM 146","OBJECT_ID":"2018-030F","EPOCH":"2023-02-01T13:11:48.062112","MEAN_MOTION":14.34220188,"ECCENTRICITY":0.0001959,"INCLINATION":86.3937,"RA_OF_ASC_NODE":85.1909,"ARG_OF_PERICENTER":90.5669,"MEAN_ANOMALY":269.5751,"EPHEMERIS_TYPE":0,"CLASSIFICATION_TYPE":"U","NORAD_CAT_ID":43254,"ELEMENT_SET_NO":999,"REV_AT_EPOCH":25360,"BSTAR":7.9898e-5,"MEAN_MOTION_DOT":2.44e-6,"MEAN_MOTION_DDOT":0},{"OBJECT_NAME":"IRIDIUM 148","OBJECT_ID":"2018-030G","EPOCH":"2023-02-02T03:30:20.568096","MEAN_MOTION":14.34218622,"ECCENTRICITY":0.0002056,"INCLINATION":86.3937,"RA_OF_ASC_NODE":84.9667,"ARG_OF_PERICENTER":99.1817,"MEAN_ANOMALY":260.9611,"EPHEMERIS_TYPE":0,"CLASSIFICATION_TYPE":"U","NORAD_CAT_ID":43255,"ELEMENT_SET_NO":999,"REV_AT_EPOCH":25373,"BSTAR":8.1592e-5,"MEAN_MOTION_DOT":2.48e-6,"MEAN_MOTION_DDOT":0},{"OBJECT_NAME":"IRIDIUM 142","OBJECT_ID":"2018-030H","EPOCH":"2023-02-01T13:20:55.507200","MEAN_MOTION":14.34217882,"ECCENTRICITY":0.0002161,"INCLINATION":86.3935,"RA_OF_ASC_NODE":85.1472,"ARG_OF_PERICENTER":94.5002,"MEAN_ANOMALY":265.644,"EPHEMERIS_TYPE":0,"CLASSIFICATION_TYPE":"U","NORAD_CAT_ID":43256,"ELEMENT_SET_NO":999,"REV_AT_EPOCH":25360,"BSTAR":8.2992e-5,"MEAN_MOTION_DOT":2.52e-6,"MEAN_MOTION_DDOT":0},{"OBJECT_NAME":"IRIDIUM 150","OBJECT_ID":"2018-030J","EPOCH":"2023-02-02T03:39:28.485792","MEAN_MOTION":14.34219081,"ECCENTRICITY":0.0002267,"INCLINATION":86.3937,"RA_OF_ASC_NODE":84.9743,"ARG_OF_PERICENTER":89.3666,"MEAN_ANOMALY":270.779,"EPHEMERIS_TYPE":0,"CLASSIFICATION_TYPE":"U","NORAD_CAT_ID":43257,"ELEMENT_SET_NO":999,"REV_AT_EPOCH":25373,"BSTAR":8.0521e-5,"MEAN_MOTION_DOT":2.45e-6,"MEAN_MOTION_DDOT":0},{"OBJECT_NAME":"IRIDIUM 143","OBJECT_ID":"2018-030K","EPOCH":"2023-02-01T13:48:19.279296","MEAN_MOTION":14.34220336,"ECCENTRICITY":0.000206,"INCLINATION":86.3941,"RA_OF_ASC_NODE":85.2586,"ARG_OF_PERICENTER":88.7754,"MEAN_ANOMALY":271.3678,"EPHEMERIS_TYPE":0,"CLASSIFICATION_TYPE":"U","NORAD_CAT_ID":43258,"ELEMENT_SET_NO":999,"REV_AT_EPOCH":25356,"BSTAR":8.2205e-5,"MEAN_MOTION_DOT":2.5e-6,"MEAN_MOTION_DDOT":0},{"OBJECT_NAME":"GAOFEN 1-02","OBJECT_ID":"2018-031A","EPOCH":"2023-02-02T02:42:04.530816","MEAN_MOTION":14.76561553,"ECCENTRICITY":0.0003655,"INCLINATION":97.8781,"RA_OF_ASC_NODE":109.4823,"ARG_OF_PERICENTER":4.7876,"MEAN_ANOMALY":355.3368,"EPHEMERIS_TYPE":0,"CLASSIFICATION_TYPE":"U","NORAD_CAT_ID":43259,"ELEMENT_SET_NO":999,"REV_AT_EPOCH":26103,"BSTAR":0.00017222,"MEAN_MOTION_DOT":1.152e-5,"MEAN_MOTION_DDOT":0},{"OBJECT_NAME":"GAOFEN 1-03","OBJECT_ID":"2018-031B","EPOCH":"2023-02-02T03:48:35.062560","MEAN_MOTION":14.76558835,"ECCENTRICITY":0.0006834,"INCLINATION":97.8777,"RA_OF_ASC_NODE":109.4815,"ARG_OF_PERICENTER":66.4952,"MEAN_ANOMALY":293.6957,"EPHEMERIS_TYPE":0,"CLASSIFICATION_TYPE":"U","NORAD_CAT_ID":43260,"ELEMENT_SET_NO":999,"REV_AT_EPOCH":26103,"BSTAR":0.00016984,"MEAN_MOTION_DOT":1.135e-5,"MEAN_MOTION_DDOT":0},{"OBJECT_NAME":"GAOFEN 1-04","OBJECT_ID":"2018-031D","EPOCH":"2023-02-02T03:13:06.336768","MEAN_MOTION":14.76556699,"ECCENTRICITY":0.0005536,"INCLINATION":97.8784,"RA_OF_ASC_NODE":109.5133,"ARG_OF_PERICENTER":25.4105,"MEAN_ANOMALY":334.7372,"EPHEMERIS_TYPE":0,"CLASSIFICATION_TYPE":"U","NORAD_CAT_ID":43262,"ELEMENT_SET_NO":999,"REV_AT_EPOCH":26102,"BSTAR":0.00017788,"MEAN_MOTION_DOT":1.191e-5,"MEAN_MOTION_DDOT":0},{"OBJECT_NAME":"SUPERBIRD-B3","OBJECT_ID":"2018-033A","EPOCH":"2023-02-01T21:18:50.256288","MEAN_MOTION":1.00270793,"ECCENTRICITY":0.0001393,"INCLINATION":0.0487,"RA_OF_ASC_NODE":255.1202,"ARG_OF_PERICENTER":29.7195,"MEAN_ANOMALY":328.6656,"EPHEMERIS_TYPE":0,"CLASSIFICATION_TYPE":"U","NORAD_CAT_ID":43271,"ELEMENT_SET_NO":999,"REV_AT_EPOCH":1769,"BSTAR":0,"MEAN_MOTION_DOT":-9.0e-7,"MEAN_MOTION_DDOT":0},{"OBJECT_NAME":"HYLAS 4","OBJECT_ID":"2018-033B","EPOCH":"2023-02-02T01:32:39.048576","MEAN_MOTION":1.002753,"ECCENTRICITY":0.0001865,"INCLINATION":0.0663,"RA_OF_ASC_NODE":265.6434,"ARG_OF_PERICENTER":52.2797,"MEAN_ANOMALY":163.7038,"EPHEMERIS_TYPE":0,"CLASSIFICATION_TYPE":"U","NORAD_CAT_ID":43272,"ELEMENT_SET_NO":999,"REV_AT_EPOCH":1772,"BSTAR":0,"MEAN_MOTION_DOT":-2.3e-6,"MEAN_MOTION_DDOT":0}]
