BEIDOU-3 M7             
1 43245U 18029A   23031.38213002 -.00000117  00000+0  00000+0 0  9994
2 43245  55.1339 342.6295 0001637 303.7282 238.8556  1.86232490 32938
BEIDOU-3 M8             
1 43246U 18029B   23030.94511024 -.00000117  00000+0  10000-3 0  9996
2 43246  55.1308 342.6736 0004963 348.6147 307.6836  1.86232652 32912
IRIDIUM 144             
1 43249U 18030A   23032.53716752  .00000244  00000+0  80050-4 0  9996
2 43249  86.3936  85.1836 0002270  87.6516 272.4940 14.34219985253604
IRIDIUM 149             
1 43250U 18030B   23032.54352593  .00000243  00000+0  79878-4 0  9993
2 43250  86.3935  85.1614 0002172  88.1604 271.9840 14.34218366253621
IRIDIUM 157             
1 43251U 18030C   23032.56255587  .00000251  00000+0  82407-4 0  9992
2 43251  86.3938  85.1796 0002259 101.0505 259.0944 14.34218591253607
IRIDIUM 140             
1 43252U 18030D   23032.51181240  .00000249  00000+0  81764-4 0  9994
2 43252  86.3936  85.2154 0002270  87.1096 273.0360 14.34219635253650
IRIDIUM 145             
1 43253U 18030E   23032.49911513  .00000247  00000+0  81025-4 0  9994
2 43253  86.3938  85.1962 0001817  83.5549 276.5854 14.34219621253581
IRIDIUM 146             
1 43254U 18030F   23032.54986183  .00000244  00000+0  79898-4 0  9998
2 43254  86.3937  85.1909 0001959  90.5669 269.5751 14.34220188253601
IRIDIUM 148             
1 43255U 18030G   23033.14607139  .00000248  00000+0  81592-4 0  9995
2 43255  86.3937  84.9667 0002056  99.1817 260.9611 14.34218622253733
IRIDIUM 142             
1 43256U 18030H   23032.55619800  .00000252  00000+0  82992-4 0  9998
2 43256  86.3935  85.1472 0002161  94.5002 265.6440 14.34217882253606
IRIDIUM 150             
1 43257U 18030J   23033.15241303  .00000245  00000+0  80521-4 0  9993
2 43257  86.3937  84.9743 0002267  89.3666 270.7790 14.34219081253734
IRIDIUM 143             
1 43258U 18030K   23032.57522314  .00000250  00000+0  82205-4 0  9990
2 43258  86.3941  85.2586 0002060  88.7754 271.3678 14.34220336253569
GAOFEN 1-02             
1 43259U 18031A   23033.11255244  .00001152  00000+0  17222-3 0  9996
2 43259  97.8781 109.4823 0003655   4.7876 355.3368 14.76561553261031
GAOFEN 1-03             
1 43260U 18031B   23033.15873915  .00001135  00000+0  16984-3 0  9998
2 43260  97.8777 109.4815 0006834  66.4952 293.6957 14.76558835261038
GAOFEN 1-04             
1 43262U 18031D   23033.13410112  .00001191  00000+0  17788-3 0  9999
2 43262  97.8784 109.5133 0005536  25.4105 334.7372 14.76556699261028
SUPERBIRD-B3            
1 43271U 18033A   23032.88808167 -.00000090  00000+0  00000+0 0  9996
2 43271   0.0487 255.1202 0001393  29.7195 328.6656  1.00270793 17692
HYLAS 4                 
1 43272U 18033B   23033.06434084 -.00000230  00000+0  00000+0 0  9997
2 43272   0.0663 265.6434 0001865  52.2797 163.7038  1.00275300 17720
